NORAD_CAT_ID,OBJECT_NAME,OBJECT_TYPE,EPOCH,MEAN_MOTION,ECCENTRICITY,INCLINATION,RA_OF_ASC_NODE,ARG_OF_PERICENTER,MEAN_ANOMALY,BSTAR,MEAN_MOTION_DOT,MEAN_MOTION_DDOT,TLE_LINE0,TLE_LINE1,TLE_LINE2,SEMIMAJOR_AXIS,PERIOD,APOGEE,PERIGEE,DECAYED
51969.0,STARLINK-3680,PAYLOAD,2022-04-06 20:00:01,15.73229195,0.0001222,53.2174,359.8623,125.5148,8.4172,-0.00013416,-0.00019428,0.0,0 STARLINK-3680,1 51969U 22025P   22096.83334491 -.00019428  00000-0 -13416-3 0  9999,2 51969  53.2174 359.8623 0001222 125.5148   8.4172 15.73229195  5734,6727.812,91.531,350.499,348.855,0.0
51969.0,STARLINK-3680,PAYLOAD,2022-04-06 22:00:00,15.73239195,0.0001164,53.2173,359.4506,123.1116,123.0574,-0.00038212,-0.00053993,0.0,0 STARLINK-3680,1 51969U 22025P   22096.91667824 -.00053993  00000-0 -38212-3 0  9993,2 51969  53.2173 359.4506 0001164 123.1116 123.0574 15.73239195  3709,6727.783,91.531,350.432,348.865,0.0
51969.0,STARLINK-3680,PAYLOAD,2022-04-07 14:00:01,15.73165347,0.0001073,53.2171,356.1503,133.7849,290.2948,4.5304e-05,5.734e-05,0.0,0 STARLINK-3680,1 51969U 22025P   22097.58334491  .00005734  00000-0  45304-4 0  9997,2 51969  53.2171 356.1503 0001073 133.7849 290.2948 15.73165347  3706,6727.994000000002,91.535,350.581,349.13699999999994,0.0
51969.0,STARLINK-3680,PAYLOAD,2022-04-07 22:00:00,15.73170061,9.55e-05,53.2169,354.5023,129.2564,23.7086,0.00030994,0.00043045,0.0,0 STARLINK-3680,1 51969U 22025P   22097.91667824  .00043045  00000-0  30994-3 0  9998,2 51969  53.2169 354.5023 0000955 129.2564  23.7086 15.73170061  5909,6727.981,91.535,350.48800000000006,349.20300000000015,0.0
51969.0,STARLINK-3680,PAYLOAD,2022-04-08 14:00:03,15.73226048,0.0001164,53.2164,351.2017,133.2225,197.7746,0.00033337,0.00046477,0.0,0 STARLINK-3680,1 51969U 22025P   22098.58336806  .00046477  00000-0  33337-3 0  9991,2 51969  53.2164 351.2017 0001164 133.2225 197.7746 15.73226048  3701,6727.821,91.532,350.469,348.903,0.0
51969.0,STARLINK-3680,PAYLOAD,2022-04-08 22:00:00,15.73234697,0.0001132,53.2168,349.5539,125.647,294.1716,-0.00070189,-0.00098127,0.0,0 STARLINK-3680,1 51969U 22025P   22098.91667824 -.00098127  00000-0 -70189-3 0  9992,2 51969  53.2168 349.5539 0001132 125.6470 294.1716 15.73234697  6066,6727.795999999999,91.531,350.423,348.9,0.0
51969.0,STARLINK-3680,PAYLOAD,2022-04-09 14:00:01,15.73074538,0.0001384,53.2167,346.2534,122.5531,115.0652,0.00039282,0.00054573,0.0,0 STARLINK-3680,1 51969U 22025P   22099.58334491  .00054573  00000-0  39282-3 0  9991,2 51969  53.2167 346.2534 0001384 122.5531 115.0652 15.73074538  3712,6728.253000000002,91.54,351.0490000000001,349.18699999999984,0.0
51969.0,STARLINK-3680,PAYLOAD,2022-04-09 22:00:00,15.73130759,0.0001363,53.2165,344.6059,116.2925,210.146,0.00029398,0.00040716,0.0,0 STARLINK-3680,1 51969U 22025P   22099.91667824  .00040716  00000-0  29398-3 0  9998,2 51969  53.2165 344.6059 0001363 116.2925 210.1460 15.73130759  6229,6728.093000000003,91.537,350.875,349.041,0.0
51969.0,STARLINK-3680,PAYLOAD,2022-04-10 06:00:02,15.73199039,0.0001244,53.2159,342.9566,116.4806,298.9136,0.00048491,0.00067983,0.0,0 STARLINK-3680,1 51969U 22025P   22100.25002315  .00067983  00000-0  48491-3 0  9996,2 51969  53.2159 342.9566 0001244 116.4806 298.9136 15.73199039  6279,6727.898,91.533,350.6,348.926,0.0
51969.0,STARLINK-3680,PAYLOAD,2022-04-10 14:00:01,15.7307669,0.0001499,53.2168,341.2922,116.8355,27.4558,0.0013336,0.00189826,0.0,0 STARLINK-3680,1 51969U 22025P   22100.58334491  .00189826  00000-0  13336-2 0  9995,2 51969  53.2168 341.2922 0001499 116.8355  27.4558 15.73076690  6328,6728.246999999999,91.54,351.12,349.103,0.0
51969.0,STARLINK-3680,PAYLOAD,2022-04-10 20:00:01,15.73294999,0.0001377,53.2165,340.0694,122.4077,358.6249,-8.089100000000001e-05,-0.00012003,0.0,0 STARLINK-3680,1 51969U 22025P   22100.83334491 -.00012003  00000-0 -80891-4 0  9999,2 51969  53.2165 340.0694 0001377 122.4077 358.6249 15.73294999  6361,6727.624,91.528,350.416,348.56300000000016,0.0
51969.0,STARLINK-3680,PAYLOAD,2022-04-10 22:00:00,15.73284992,0.0001339,53.2164,339.6576,119.3927,113.9037,4.5283e-06,1.7e-07,0.0,0 STARLINK-3680,1 51969U 22025P   22100.91667824  .00000017  00000-0  45283-5 0  9994,2 51969  53.2164 339.6576 0001339 119.3927 113.9037 15.73284992  3704,6727.653,91.528,350.4190000000001,348.617,0.0
51969.0,STARLINK-3680,PAYLOAD,2022-04-11 04:00:01,15.73278175,0.0001183,53.2162,338.4208,117.6571,92.4549,-0.00035003,-0.00049619,0.0,0 STARLINK-3680,1 51969U 22025P   22101.16668981 -.00049619  00000-0 -35003-3 0  9997,2 51969  53.2162 338.4208 0001183 117.6571  92.4549 15.73278175  6410,6727.672,91.529,350.333,348.741,0.0
51969.0,STARLINK-3680,PAYLOAD,2022-04-11 12:00:00,15.73192732,0.0001238,53.2164,336.7693,128.4147,170.6118,-0.00053221,-0.00074629,0.0,0 STARLINK-3680,1 51969U 22025P   22101.50001157 -.00074629  00000-0 -53221-3 0  9992,2 51969  53.2164 336.7693 0001238 128.4147 170.6118 15.73192732  6472,6727.916,91.534,350.61400000000015,348.9480000000001,0.0
51969.0,STARLINK-3680,PAYLOAD,2022-04-11 14:00:01,15.7318428,0.0001283,53.2164,336.3567,128.255,282.9995,-0.00063111,-0.00088209,0.0,0 STARLINK-3680,1 51969U 22025P   22101.58334491 -.00088209  00000-0 -63111-3 0  9998,2 51969  53.2164 336.3567 0001283 128.2550 282.9995 15.73184280  3706,6727.94,91.534,350.668,348.94199999999995,0.0
51969.0,STARLINK-3680,PAYLOAD,2022-04-11 22:00:00,15.73102193,0.0001162,53.216,334.7093,119.4652,20.679,0.00010784,0.00014478,0.0,0 STARLINK-3680,1 51969U 22025P   22101.91667824  .00014478  00000-0  10784-3 0  9997,2 51969  53.2160 334.7093 0001162 119.4652  20.6790 15.73102193  3689,6728.174,91.539,350.821,349.25699999999995,0.0
51969.0,STARLINK-3680,PAYLOAD,2022-04-12 04:00:00,15.730979800000002,0.0001158,53.2155,333.4727,116.7179,0.0252,0.00049546,0.00069184,0.0,0 STARLINK-3680,1 51969U 22025P   22102.16667824  .00069184  00000-0  49546-3 0  9997,2 51969  53.2155 333.4727 0001158 116.7179   0.0252 15.73097980  6575,6728.186,91.539,350.83,349.272,0.0
51969.0,STARLINK-3680,PAYLOAD,2022-04-12 14:00:01,15.73112611,0.0001361,53.2156,331.4088,127.5995,190.2013,0.0015622,0.00223724,0.0,0 STARLINK-3680,1 51969U 22025P   22102.58334491  .00223724  00000-0  15622-2 0  9993,2 51969  53.2156 331.4088 0001361 127.5995 190.2013 15.73112611  3704,6728.144,91.538,350.925,349.094,0.0
51969.0,STARLINK-3680,PAYLOAD,2022-04-12 22:00:00,15.73271528,0.0001233,53.2158,329.7616,120.475,286.2135,-0.0005144,-0.00072414,0.0,0 STARLINK-3680,1 51969U 22025P   22102.91667824 -.00072414  00000-0 -51440-3 0  9998,2 51969  53.2158 329.7616 0001233 120.4750 286.2135 15.73271528  3694,6727.691,91.529,350.386,348.727,0.0
51969.0,STARLINK-3680,PAYLOAD,2022-04-13 14:00:03,15.73211088,0.0001276,53.2157,326.4602,127.0842,97.7315,0.00050627,0.00071069,0.0,0 STARLINK-3680,1 51969U 22025P   22103.58336806  .00071069  00000-0  50627-3 0  9994,2 51969  53.2157 326.4602 0001276 127.0842  97.7315 15.73211088  6800,6727.864000000001,91.533,350.587,348.87,0.0
51969.0,STARLINK-3680,PAYLOAD,2022-04-13 22:00:00,15.73227463,0.0001113,53.2153,324.8128,119.2071,194.5211,-0.00016668,-0.00023973,0.0,0 STARLINK-3680,1 51969U 22025P   22103.91667824 -.00023973  00000-0 -16668-3 0  9998,2 51969  53.2153 324.8128 0001113 119.2071 194.5211 15.73227463  3709,6727.816999999999,91.532,350.431,348.93300000000005,0.0
51969.0,STARLINK-3680,PAYLOAD,2022-04-14 06:00:00,15.73216679,0.0001129,53.2146,323.1625,121.9277,280.737,-0.00045051,-0.00063415,0.0,0 STARLINK-3680,1 51969U 22025P   22104.25001157 -.00063415  00000-0 -45051-3 0  9990,2 51969  53.2146 323.1625 0001129 121.9277 280.7370 15.73216679  6906,6727.848000000001,91.532,350.472,348.95300000000015,0.0
51969.0,STARLINK-3680,PAYLOAD,2022-04-14 14:00:01,15.73167835,0.00015,53.2149,321.5117,123.6069,7.9559,-0.00058389,-0.00081664,0.0,0 STARLINK-3680,1 51969U 22025P   22104.58334491 -.00081664  00000-0 -58389-3 0  9990,2 51969  53.2149 321.5117 0001500 123.6069   7.9559 15.73167835  3698,6727.986999999999,91.535,350.861,348.843,0.0
51969.0,STARLINK-3680,PAYLOAD,2022-04-14 22:00:00,15.73123671,0.0001437,53.215,319.8644,111.814,108.6412,0.00047464,0.00066302,0.0,0 STARLINK-3680,1 51969U 22025P   22104.91667824  .00066302  00000-0  47464-3 0  9998,2 51969  53.2150 319.8644 0001437 111.8140 108.6412 15.73123671  3702,6728.113,91.538,350.945,349.011,0.0
51969.0,STARLINK-3680,PAYLOAD,2022-04-15 04:00:00,15.73194328,0.0001252999999999,53.2146,318.627,114.101,83.0153,0.00060961,0.00085792,0.0,0 STARLINK-3680,1 51969U 22025P   22105.16667824  .00085792  00000-0  60961-3 0  9997,2 51969  53.2146 318.6270 0001253 114.1010  83.0153 15.73194328  7043,6727.911,91.534,350.619,348.93300000000005,0.0
51969.0,STARLINK-3680,PAYLOAD,2022-04-15 14:00:01,15.73331684,0.0001284999999999,53.2149,316.5632,123.2119,275.0768,6.4534e-05,8.496e-05,0.0,0 STARLINK-3680,1 51969U 22025P   22105.58334491  .00008496  00000-0  64534-4 0  9991,2 51969  53.2149 316.5632 0001285 123.2119 275.0768 15.73331684  3703,6727.52,91.526,350.249,348.52,0.0
51969.0,STARLINK-3680,PAYLOAD,2022-04-15 22:00:00,15.73316518,0.0001136,53.2145,314.9154,112.8797,14.5066,-0.00065758,-0.00092357,0.0,0 STARLINK-3680,1 51969U 22025P   22105.91667824 -.00092357  00000-0 -65758-3 0  9996,2 51969  53.2145 314.9154 0001136 112.8797  14.5066 15.73316518  7161,6727.563,91.526,350.19199999999995,348.664,0.0
51969.0,STARLINK-3680,PAYLOAD,2022-04-16 14:00:01,15.7309408,0.0001465,53.2142,311.6137,122.3487,182.9852,-0.00016512,-0.00023623,0.0,0 STARLINK-3680,1 51969U 22025P   22106.58334491 -.00023623  00000-0 -16512-3 0  9995,2 51969  53.2142 311.6137 0001465 122.3487 182.9852 15.73094080  7272,6728.196999999999,91.539,351.048,349.076,0.0
51969.0,STARLINK-3680,PAYLOAD,2022-04-16 22:00:01,15.73075559,0.0001161,53.2143,309.9665,114.7766,279.4326,0.00050338,0.00070241,0.0,0 STARLINK-3680,1 51969U 22025P   22106.91668981  .00070241  00000-0  50338-3 0  9996,2 51969  53.2143 309.9665 0001161 114.7766 279.4326 15.73075559  7321,6728.25,91.54,350.896,349.334,0.0
